NORAD_CAT_ID,OBJECT_NAME,OBJECT_TYPE,EPOCH,MEAN_MOTION,ECCENTRICITY,INCLINATION,RA_OF_ASC_NODE,ARG_OF_PERICENTER,MEAN_ANOMALY,BSTAR,MEAN_MOTION_DOT,MEAN_MOTION_DDOT,TLE_LINE0,TLE_LINE1,TLE_LINE2,SEMIMAJOR_AXIS,PERIOD,APOGEE,PERIGEE,DECAYED
53547.0,STARLINK-4474,PAYLOAD,2024-02-19 13:59:46,15.08844329,0.0001493,53.2177,186.989,103.7857,256.3301,-8.0113e-05,-1.563e-05,0.0,0 STARLINK-4474,1 53547U 22101W   24050.58317824 -.00001563  00000-0 -80113-4 0  9993,2 53547  53.2177 186.9890 0001493 103.7857 256.3301 15.08844329 83881,6917.867,95.437,540.765,538.699,0.0
53547.0,STARLINK-4474,PAYLOAD,2024-02-19 15:35:09,15.08841029,0.0001425,53.2173,186.6932,92.6797,267.4358,-6.9035e-05,-1.387e-05,0.0,0 STARLINK-4474,1 53547U 22101W   24050.64942033 -.00001387  00000-0 -69035-4 0  9990,2 53547  53.2173 186.6932 0001425  92.6797 267.4358 15.08841029 83895,6917.877,95.437,540.728,538.756,0.0
53547.0,STARLINK-4474,PAYLOAD,2024-02-20 15:25:56,15.08843807,0.0001291,53.2164,182.2355,80.8567,279.2571,-6.0398e-05,-1.249e-05,0.0,0 STARLINK-4474,1 53547U 22101W   24051.64302017 -.00001249  00000-0 -60398-4 0  9993,2 53547  53.2164 182.2355 0001291  80.8567 279.2571 15.08843807 84043,6917.869,95.437,540.627,538.841,0.0
53547.0,STARLINK-4474,PAYLOAD,2024-02-20 18:36:42,15.08847146,0.0001309,53.2161,181.6351,83.1849,276.9292,-3.4718e-05,-8.41e-06,0.0,0 STARLINK-4474,1 53547U 22101W   24051.77549649 -.00000841  00000-0 -34718-4 0  9995,2 53547  53.2161 181.6351 0001309  83.1849 276.9292 15.08847146 83399,6917.859,95.437,540.629,538.818,0.0
53547.0,STARLINK-4474,PAYLOAD,2024-02-21 12:05:57,15.08837273,0.0001388,53.2166,178.3639,90.8899,269.2252,0.00011709,1.576e-05,0.0,0 STARLINK-4474,1 53547U 22101W   24052.50413820  .00001576  00000-0  11709-3 0  9996,2 53547  53.2166 178.3639 0001388  90.8899 269.2252 15.08837273 83507,6917.889,95.438,540.714,538.794,0.0
53547.0,STARLINK-4474,PAYLOAD,2024-02-21 15:16:43,15.08837771,0.0001185,53.2159,177.7728,84.4336,275.6791,0.0001408,1.954e-05,0.0,0 STARLINK-4474,1 53547U 22101W   24052.63661707  .00001954  00000-0  14080-3 0  9994,2 53547  53.2159 177.7728 0001185  84.4336 275.6791 15.08837771 84199,6917.887,95.438,540.572,538.932,0.0
53547.0,STARLINK-4474,PAYLOAD,2024-02-22 15:07:31,15.08841663,0.0001362,53.2165,173.3135,86.3072,273.8076,4.0232e-05,3.52e-06,0.0,0 STARLINK-4474,1 53547U 22101W   24053.63022402  .00000352  00000-0  40232-4 0  9998,2 53547  53.2165 173.3135 0001362  86.3072 273.8076 15.08841663 84343,6917.875,95.437,540.683,538.798,0.0
53547.0,STARLINK-4474,PAYLOAD,2024-02-23 11:47:32,15.08836524,0.0001374,53.217,169.4491,99.9517,260.163,-9.7906e-05,-1.846e-05,0.0,0 STARLINK-4474,1 53547U 22101W   24054.49135026 -.00001846  00000-0 -97906-4 0  9991,2 53547  53.2170 169.4491 0001374  99.9517 260.1630 15.08836524 83802,6917.891,95.438,540.707,538.805,0.0
53547.0,STARLINK-4474,PAYLOAD,2024-02-23 13:22:55,15.08838805,0.000135,53.2166,169.1518,97.0488,263.0658,-9.4517e-05,-1.792e-05,0.0,0 STARLINK-4474,1 53547U 22101W   24054.55758927 -.00001792  00000-0 -94517-4 0  9994,2 53547  53.2166 169.1518 0001350  97.0488 263.0658 15.08838805 84485,6917.884,95.438,540.683,538.815,0.0
53547.0,STARLINK-4474,PAYLOAD,2024-02-23 14:58:18,15.08841192,0.0001273,53.2164,168.8537,94.0683,266.0455,-6.743e-05,-1.361e-05,0.0,0 STARLINK-4474,1 53547U 22101W   24054.62382694 -.00001361  00000-0 -67430-4 0  9992,2 53547  53.2164 168.8537 0001273  94.0683 266.0455 15.08841192 84490,6917.877,95.437,540.622,538.861,0.0
53547.0,STARLINK-4474,PAYLOAD,2024-02-24 13:13:42,15.08837647,0.0001486,53.2169,164.6903,78.1507,281.9652,4.9636e-05,5.02e-06,0.0,0 STARLINK-4474,1 53547U 22101W   24055.55119069  .00000502  00000-0  49636-4 0  9991,2 53547  53.2169 164.6903 0001486  78.1507 281.9652 15.08837647 84631,6917.888,95.438,540.781,538.725,0.0
53547.0,STARLINK-4474,PAYLOAD,2024-02-25 11:29:06,15.08845394,0.0001789,53.2171,160.5275,60.3011,299.8159,0.00016345,2.315e-05,0.0,0 STARLINK-4474,1 53547U 22101W   24056.47854317  .00002315  00000-0  16345-3 0  9999,2 53547  53.2171 160.5275 0001789  60.3011 299.8159 15.08845394 84100,6917.864,95.437,540.967,538.491,0.0
53547.0,STARLINK-4474,PAYLOAD,2024-02-25 13:04:27,15.08897513,0.0001162,53.216,160.2297,86.4338,273.6787,-0.00047951,-7.923e-05,0.0,0 STARLINK-4474,1 53547U 22101W   24056.54476553 -.00007923  00000-0 -47951-3 0  9998,2 53547  53.2160 160.2297 0001162  86.4338 273.6787 15.08897513 84786,6917.705,95.434,540.373,538.766,0.0
53547.0,STARLINK-4474,PAYLOAD,2024-02-26 00:12:10,15.08852503,0.0001394,53.2157,158.1483,86.4257,273.6895,0.00011608,1.561e-05,0.0,0 STARLINK-4474,1 53547U 22101W   24057.00845582  .00001561  00000-0  11608-3 0  9992,2 53547  53.2157 158.1483 0001394  86.4257 273.6895 15.08852503 84186,6917.842,95.437,540.672,538.743,0.0
53547.0,STARLINK-4474,PAYLOAD,2024-02-26 11:19:52,15.08848894,0.0001862,53.2184,156.0652,98.8071,261.3132,4.624e-05,4.48e-06,0.0,0 STARLINK-4474,1 53547U 22101W   24057.47214042  .00000448  00000-0  46240-4 0  9998,2 53547  53.2184 156.0652 0001862  98.8071 261.3132 15.08848894 84256,6917.853,95.437,541.006,538.43,0.0
53547.0,STARLINK-4474,PAYLOAD,2024-02-26 12:55:16,15.08847138,0.0001703,53.2178,155.7695,84.8046,275.3141,4.1818e-05,3.78e-06,0.0,0 STARLINK-4474,1 53547U 22101W   24057.53838180  .00000378  00000-0  41818-4 0  9998,2 53547  53.2178 155.7695 0001703  84.8046 275.3141 15.08847138 84933,6917.859,95.437,540.902,538.545,0.0
53547.0,STARLINK-4474,PAYLOAD,2024-02-26 16:06:01,15.08854592,0.0001448,53.2166,155.1717,105.0424,255.0729,0.00010043,1.311e-05,0.0,0 STARLINK-4474,1 53547U 22101W   24057.67085268  .00001311  00000-0  10043-3 0  9997,2 53547  53.2166 155.1717 0001448 105.0424 255.0729 15.08854592 84288,6917.836,95.437,540.702,538.699,0.0
53547.0,STARLINK-4474,PAYLOAD,2024-02-27 11:10:40,15.08845604,0.0001985,53.2172,151.6021,121.6402,238.4784,-8.6148e-05,-1.659e-05,0.0,0 STARLINK-4474,1 53547U 22101W   24058.46574141 -.00001659  00000-0 -86148-4 0  9995,2 53547  53.2172 151.6021 0001985 121.6402 238.4784 15.08845604 84404,6917.863,95.437,541.101,538.355,0.0
53547.0,STARLINK-4474,PAYLOAD,2024-02-27 12:46:03,15.08840415,0.0001587,53.2167,151.3081,97.5508,262.5664,-3.2476e-05,-8.05e-06,0.0,0 STARLINK-4474,1 53547U 22101W   24058.53198442 -.00000805  00000-0 -32476-4 0  9996,2 53547  53.2167 151.3081 0001587  97.5508 262.5664 15.08840415 85082,6917.879,95.438,540.842,538.646,0.0
53547.0,STARLINK-4474,PAYLOAD,2024-02-28 12:36:52,15.0881348,0.0001159,53.2171,146.8469,89.0353,271.0772,-3.1692e-05,-7.92e-06,0.0,0 STARLINK-4474,1 53547U 22101W   24059.52560622 -.00000792  00000-0 -31692-4 0  9993,2 53547  53.2171 146.8469 0001159  89.0353 271.0772 15.08813480 84564,6917.961,95.439,540.628,539.025,0.0
53547.0,STARLINK-4474,PAYLOAD,2024-02-28 15:47:38,15.08818732,0.0001295,53.2168,146.2535,100.8571,259.2567,-0.00014487,-2.591e-05,0.0,0 STARLINK-4474,1 53547U 22101W   24059.65808748 -.00002591  00000-0 -14487-3 0  9992,2 53547  53.2168 146.2535 0001295 100.8571 259.2567 15.08818732 85255,6917.945,95.439,540.706,538.915,0.0
53547.0,STARLINK-4474,PAYLOAD,2024-02-29 12:27:39,15.08833361,0.0001371,53.2172,142.3881,85.9717,274.1432,7.4553e-05,8.99e-06,0.0,0 STARLINK-4474,1 53547U 22101W   24060.51920152  .00000899  00000-0  74553-4 0  9991,2 53547  53.2172 142.3881 0001371  85.9717 274.1432 15.08833361 84713,6917.901,95.438,540.714,538.817,0.0
53547.0,STARLINK-4474,PAYLOAD,2024-02-29 21:59:57,15.08841693,0.0001451,53.2176,140.6035,104.2028,255.9125,0.0001369,1.892e-05,0.0,0 STARLINK-4474,1 53547U 22101W   24060.91663536  .00001892  00000-0  13690-3 0  9993,2 53547  53.2176 140.6035 0001451 104.2028 255.9125 15.08841693 85442,6917.875,95.437,540.744,538.736,0.0
53547.0,STARLINK-4474,PAYLOAD,2024-03-01 10:43:01,15.08848243,0.0001349,53.216,138.2237,76.6929,283.4214,0.00044952,6.875e-05,0.0,0 STARLINK-4474,1 53547U 22101W   24061.44654700  .00006875  00000-0  44952-3 0  9996,2 53547  53.2160 138.2237 0001349  76.6929 283.4214 15.08848243 84857,6917.855,95.437,540.653,538.787,0.0
53547.0,STARLINK-4474,PAYLOAD,2024-03-02 12:09:12,15.08852382,0.0001627,53.2171,133.4644,64.7228,295.3932,0.00015025,2.105e-05,0.0,0 STARLINK-4474,1 53547U 22101W   24062.50639179  .00002105  00000-0  15025-3 0  9998,2 53547  53.2171 133.4644 0001627  64.7228 295.3932 15.08852382 85014,6917.843,95.437,540.833,538.582,0.0
53547.0,STARLINK-4474,PAYLOAD,2024-03-03 12:00:01,15.0877981,0.0002272,53.2179,129.0074,72.2872,287.8368,0.00087803,0.00013691,0.0,0 STARLINK-4474,1 53547U 22101W   24063.50001252  .00013691  00000-0  87803-3 0  9999,2 53547  53.2179 129.0074 0002272  72.2872 287.8368 15.08779810 85165,6918.064,95.441,541.501,538.358,0.0
53547.0,STARLINK-4474,PAYLOAD,2024-03-04 03:53:50,15.08858645,0.0001693,53.2171,126.0322,81.6325,278.4859,-0.00010367,-1.939e-05,0.0,0 STARLINK-4474,1 53547U 22101W   24064.16238683 -.00001939  00000-0 -10367-3 0  9997,2 53547  53.2171 126.0322 0001693  81.6325 278.4859 15.08858645 85269,6917.823,95.436,540.86,538.517,0.0
53547.0,STARLINK-4474,PAYLOAD,2024-03-04 10:15:22,15.08846649,0.0001727,53.2174,124.8477,75.0458,285.0725,0.00020057,2.906e-05,0.0,0 STARLINK-4474,1 53547U 22101W   24064.42734390  .00002906  00000-0  20057-3 0  9992,2 53547  53.2174 124.8477 0001727  75.0458 285.0725 15.08846649 85976,6917.86,95.437,540.92,538.53,0.0
53547.0,STARLINK-4474,PAYLOAD,2024-03-04 21:23:04,15.0884103,0.0001548,53.2162,122.7615,86.2512,273.8657,0.00012917,1.768e-05,0.0,0 STARLINK-4474,1 53547U 22101W   24064.89102820  .00001768  00000-0  12917-3 0  9991,2 53547  53.2162 122.7615 0001548  86.2512 273.8657 15.08841030 86047,6917.877,95.437,540.813,538.671,0.0
53547.0,STARLINK-4474,PAYLOAD,2024-03-05 13:16:57,15.08824473,0.0001675,53.2156,119.7847,106.8452,253.2724,-9.505e-05,-1.8e-05,0.0,0 STARLINK-4474,1 53547U 22101W   24065.55344209 -.00001800  00000-0 -95050-4 0  9993,2 53547  53.2156 119.7847 0001675 106.8452 253.2724 15.08824473 86146,6917.928,95.439,540.952,538.634,0.0
